H1 CPF  1  HTS 2022  6 11 12  6621 larets           NONE
H2  0304206 5557    27944 2022 06 11  0  0  0 2022 06 16  0  0  0   180 1 1  0 0 0
H5  0.0560 
H9 
10 0 59742  10440.00000  0    1194547.459   -1259942.276    6842362.869
10 0 59742  10620.00000  0    -135986.637   -1003590.217    6986829.992
10 0 59742  10800.00000  0   -1453929.686    -676105.117    6876276.577
10 0 59742  10980.00000  0   -2709836.457    -290339.006    6514783.769
10 0 59742  11160.00000  0   -3856872.486     137489.315    5915504.738
10 0 59742  11340.00000  0   -4852555.015     588459.179    5100218.276
10 0 59742  11520.00000  0   -5660344.808    1041756.316    4098580.514
10 0 59742  11700.00000  0   -6251025.846    1475596.451    2947086.850
10 0 59742  11880.00000  0   -6603813.273    1868226.845    1687771.032
10 0 59742  12060.00000  0   -6707140.991    2198960.179     366677.996
10 0 59742  12240.00000  0   -6559081.042    2449190.881    -967840.794
10 0 59742  12420.00000  0   -6167363.386    2603337.615   -2266935.287
10 0 59742  12600.00000  0   -5548996.177    2649664.847   -3483087.704
10 0 59742  12780.00000  0   -4729501.018    2580938.152   -4571885.142
10 0 59742  12960.00000  0   -3741810.696    2394878.171   -5493649.305
10 0 59742  13140.00000  0   -2624895.818    2094397.368   -6214859.976
10 0 59742  13320.00000  0   -1422193.174    1687613.426   -6709332.918
10 0 59742  13500.00000  0    -179899.567    1187638.406   -6959121.014
10 0 59742  13680.00000  0    1054793.434     612155.882   -6955121.090
10 0 59742  13860.00000  0    2235470.379     -17197.574   -6697390.684
10 0 59742  14040.00000  0    3318221.937    -675634.039   -6195160.369
10 0 59742  14220.00000  0    4263274.073   -1336172.730   -5466537.923
10 0 59742  14400.00000  0    5036466.748   -1970726.986   -4537910.590
10 0 59742  14580.00000  0    5610534.719   -2551287.564   -3443047.545
10 0 59742  14760.00000  0    5966131.960   -3051151.689   -2221912.352
10 0 59742  14940.00000  0    6092547.775   -3446141.535    -919215.170
10 0 59742  15120.00000  0    5988070.898   -3715751.057     417244.203
10 0 59742  15300.00000  0    5659977.118   -3844161.128    1738376.297
10 0 59742  15480.00000  0    5124133.200   -3821065.327    2995668.003
10 0 59742  15660.00000  0    4404232.943   -3642255.064    4143019.937
10 0 59742  15840.00000  0    3530720.051   -3309939.578    5138468.787
10 0 59742  16020.00000  0    2539454.057   -2832789.848    5945727.452
10 0 59742  16200.00000  0    1470192.269   -2225704.913    6535480.824
10 0 59742  16380.00000  0     364964.708   -1509321.539    6886401.275
10 0 59742  16560.00000  0    -733587.978    -709291.191    6985864.412
10 0 59742  16740.00000  0   -1783850.055     144648.163    6830358.262
10 0 59742  16920.00000  0   -2746788.959    1019773.568    6425586.973
10 0 59742  17100.00000  0   -3587391.786    1881618.568    5786270.044
10 0 59742  17280.00000  0   -4275938.535    2695316.612    4935640.961
10 0 59742  17460.00000  0   -4789072.636    3427005.629    3904648.440
10 0 59742  17640.00000  0   -5110624.768    4045238.560    2730869.856
10 0 59742  17820.00000  0   -5232152.423    4522342.140    1457167.502
10 0 59742  18000.00000  0   -5153168.004    4835661.958     130124.423
10 0 59742  18180.00000  0   -4881036.591    4968622.315   -1201683.212
10 0 59742  18360.00000  0   -4430546.351    4911548.445   -2489505.397
10 0 59742  18540.00000  0   -3823164.718    4662201.038   -3686248.583
10 0 59742  18720.00000  0   -3086024.977    4225992.462   -4748226.675
10 0 59742  18900.00000  0   -2250702.467    3615883.382   -5636753.773
10 0 59742  19080.00000  0   -1351851.644    2851977.105   -6319526.278
10 0 59742  19260.00000  0    -425762.153    1960828.480   -6771757.626
10 0 59742  19440.00000  0     491102.337     974499.793   -6977028.596
10 0 59742  19620.00000  0    1363523.932     -70594.023   -6927845.951
10 0 59742  19800.00000  0    2158869.015   -1135017.512   -6625902.959
10 0 59742  19980.00000  0    2848298.837   -2177783.905   -6082032.707
10 0 59742  20160.00000  0    3407818.594   -3157915.289   -5315861.761
10 0 59742  20340.00000  0    3819135.561   -4036056.187   -4355161.527
10 0 59742  20520.00000  0    4070285.528   -4776074.980   -3234890.996
10 0 59742  20700.00000  0    4156003.409   -5346584.376   -1995964.046
10 0 59742  20880.00000  0    4077818.902   -5722318.324    -683763.597
10 0 59742  21060.00000  0    3843858.662   -5885284.009     653548.553
10 0 59742  21240.00000  0    3468361.269   -5825623.045    1966851.477
10 0 59742  21420.00000  0    2970928.636   -5542130.465    3207932.853
10 0 59742  21600.00000  0    2375551.395   -5042401.903    4331310.420
10 0 59742  21780.00000  0    1709469.611   -4342611.265    5295925.308
10 0 59742  21960.00000  0    1001930.232   -3466934.050    6066641.297
10 0 59742  22140.00000  0     282901.492   -2446649.712    6615494.598
10 0 59742  22320.00000  0    -418192.984   -1318974.721    6922653.043
10 0 59742  22500.00000  0   -1073664.663    -125682.354    6977078.310
10 0 59742  22680.00000  0   -1658638.057    1088448.196    6776885.807
10 0 59742  22860.00000  0   -2151982.431    2277301.258    6329394.274
10 0 59742  23040.00000  0   -2537068.880    3395159.751    5650869.789
10 0 59742  23220.00000  0   -2802330.620    4398455.103    4765970.187
10 0 59742  23400.00000  0   -2941611.306    5247476.515    3706896.419
10 0 59742  23580.00000  0   -2954284.847    5907974.700    2512259.966
10 0 59742  23760.00000  0   -2845137.855    6352585.128    1225694.559
10 0 59742  23940.00000  0   -2624018.316    6562002.340    -105739.613
10 0 59742  24120.00000  0   -2305264.427    6525846.003   -1433302.550
10 0 59742  24300.00000  0   -1906940.333    6243164.289   -2708406.300
10 0 59742  24480.00000  0   -1449911.980    5722531.734   -3884437.916
10 0 59742  24660.00000  0    -956822.732    4981756.236   -4918480.222
10 0 59742  24840.00000  0    -451023.962    4047218.746   -5772872.689
10 0 59742  25020.00000  0      44490.951    2952882.899   -6416557.549
10 0 59742  25200.00000  0     508101.007    1739016.977   -6826167.231
10 0 59742  25380.00000  0     920474.133     450692.228   -6986824.085
10 0 59742  25560.00000  0    1265354.345    -863887.054   -6892647.290
10 0 59742  25740.00000  0    1530192.920   -2155170.060   -6546955.427
10 0 59742  25920.00000  0    1706604.425   -3374102.574   -5962166.731
10 0 59742  26100.00000  0    1790636.939   -4473982.754   -5159403.109
10 0 59742  26280.00000  0    1782843.637   -5412272.345   -4167782.982
10 0 59742  26460.00000  0    1688152.474   -6152285.121   -3023416.926
10 0 59742  26640.00000  0    1515533.650   -6664690.042   -1768126.230
10 0 59742  26820.00000  0    1277478.560   -6928747.559    -447914.708
10 0 59742  27000.00000  0     989312.220   -6933210.417     888748.984
10 0 59742  27180.00000  0     668373.826   -6676832.246    2192764.617
10 0 59742  27360.00000  0     333108.680   -6168453.939    3416267.620
10 0 59742  27540.00000  0       2119.299   -5426656.154    4514438.047
10 0 59742  27720.00000  0    -306773.136   -4479010.926    5447162.577
10 0 59742  27900.00000  0    -577404.931   -3360980.337    6180491.143
10 0 59742  28080.00000  0    -796042.264   -2114517.973    6687837.172
10 0 59742  28260.00000  0    -952018.102    -786448.183    6950883.417
10 0 59742  28440.00000  0   -1038211.055     573306.280    6960192.513
10 0 59742  28620.00000  0   -1051350.460    1913596.555    6715512.510
10 0 59742  28800.00000  0    -992134.839    3183955.887    6225772.676
10 0 59742  28980.00000  0    -865163.786    4336485.634    5508774.039
10 0 59742  29160.00000  0    -678686.499    5327662.094    4590579.375
10 0 59742  29340.00000  0    -444175.586    6120005.239    3504610.617
10 0 59742  29520.00000  0    -175742.137    6683540.332    2290471.757
10 0 59742  29700.00000  0     110583.047    6996998.080     992522.779
10 0 59742  29880.00000  0     397676.740    7048671.456    -341754.912
10 0 59742  30060.00000  0     668213.130    6836887.963   -1663525.656
10 0 59742  30240.00000  0     905566.305    6370065.837   -2924429.013
10 0 59742  30420.00000  0    1094676.966    5666354.934   -4078383.579
10 0 59742  30600.00000  0    1222844.959    4752884.832   -5083290.525
10 0 59742  30780.00000  0    1280406.920    3664659.331   -5902564.517
10 0 59742  30960.00000  0    1261265.440    2443160.879   -6506435.628
10 0 59742  31140.00000  0    1163246.907    1134732.222   -6872984.937
10 0 59742  31320.00000  0     988276.583    -211191.116   -6988892.890
10 0 59742  31500.00000  0     742364.859   -1543938.688   -6849892.641
10 0 59742  31680.00000  0     435404.075   -2813490.285   -6460917.940
10 0 59742  31860.00000  0      80784.070   -3972332.722   -5835955.655
10 0 59742  32040.00000  0    -305166.583   -4977244.047   -4997592.736
10 0 59742  32220.00000  0    -703893.077   -5790937.139   -3976257.383
10 0 59742  32400.00000  0   -1095458.961   -6383503.622   -2809165.375
10 0 59742  32580.00000  0   -1459487.261   -6733589.270   -1538991.268
10 0 59742  32760.00000  0   -1776154.333   -6829240.731    -212303.281
10 0 59742  32940.00000  0   -2027185.237   -6668368.184    1122182.106
10 0 59742  33120.00000  0   -2196798.698   -6258791.401    2415446.440
10 0 59742  33300.00000  0   -2272548.694   -5617863.678    3620031.483
10 0 59742  33480.00000  0   -2246014.581   -4771694.408    4691827.025
10 0 59742  33660.00000  0   -2113306.515   -3754022.497    5591702.496
10 0 59742  33840.00000  0   -1875366.489   -2604804.309    6286923.325
10 0 59742  34020.00000  0   -1538049.252   -1368588.684    6752300.331
10 0 59742  34200.00000  0   -1111986.625     -92761.076    6971048.336
10 0 59742  34380.00000  0    -612247.971    1174279.153    6935339.230
10 0 59742  34560.00000  0     -57805.256    2384941.361    6646551.237
10 0 59742  34740.00000  0     529184.302    3494215.014    6115211.041
99
